STARLINK-5256           
1 54175U 22141U   25304.09896865 -.00001092  00000+0 -50482-4 0  9993
2 54175  53.2176 225.8884 0001746  71.7813 288.3369 15.08848473166291
STARLINK-5154           
1 54176U 22141V   25304.01798817  .00000068  00000+0  22366-4 0  9994
2 54176  53.2177 226.0940 0001407  90.9247 269.1907 15.08838559166285
STARLINK-5186           
1 54177U 22141W   25304.48903867 -.00000379  00000+0 -57464-5 0  9994
2 54177  53.2173 224.0594 0001330  82.1937 277.9206 15.08841646166357
STARLINK-5164           
1 54178U 22141X   25304.06948165  .00000489  00000+0  48790-4 0  9990
2 54178  53.2158 225.6825 0001524  99.4638 260.6527 15.08847381166299
STARLINK-5122           
1 54179U 22141Y   25304.02167235 -.00000412  00000+0 -77734-5 0  9997
2 54179  53.2171 226.1186 0001370  98.2617 261.8531 15.08840977166285
STARLINK-5228           
1 54180U 22141Z   25304.06580104 -.00000731  00000+0 -27802-4 0  9991
2 54180  53.2179 225.6785 0001509  93.0765 267.0400 15.08846518166296
STARLINK-5227           
1 54181U 22141AA  25304.07685431  .00000885  00000+0  73698-4 0  9994
2 54181  53.2160 225.7497 0001631  97.3282 262.7896 15.08844877166292
STARLINK-5231           
1 54182U 22141AB  25303.92135585 -.00000242  00000+0  29231-5 0  9991
2 54182  53.2181 196.3085 0001615  83.8800 276.2376 15.08846260166695
STARLINK-5239           
1 54183U 22141AC  25304.06211170 -.00001960  00000+0 -10506-3 0  9995
2 54183  53.2176 225.6579 0001466  91.9211 268.1949 15.08854182166298
STARLINK-5162           
1 54184U 22141AD  25303.93437061  .00001058  00000+0  84507-4 0  9999
2 54184  53.2167 226.9740 0001409  77.3673 282.7477 15.08849286166264
STARLINK-5235           
1 54185U 22141AE  25304.47061347  .00000104  00000+0  24618-4 0  9998
2 54185  53.2168 223.9399 0001658  93.7999 266.3183 15.08836484166350
STARLINK-5240           
1 54187U 22141AG  25304.47795957  .00002593  00000+0  18081-3 0  9991
2 54187  53.2164 223.9982 0001495  74.5239 285.5918 15.08863204166358
STARLINK-5238           
1 54188U 22141AH  25304.04468731  .00008085  00000+0  52504-3 0  9992
2 54188  53.2161 216.2790 0001605  99.0370 261.0804 15.08871550166423
STARLINK-5281           
1 54190U 22141AK  25304.04100042  .00000708  00000+0  62528-4 0  9995
2 54190  53.2170 216.2538 0001302  87.5367 272.5774 15.08850137166429
STARLINK-4619           
1 54191U 22141AL  25304.44950878  .00001539  00000+0  11472-3 0  9994
2 54191  53.2174 214.5402 0001316  94.2202 265.8940 15.08845645166487
STARLINK-5268           
1 54192U 22141AM  25304.46786263 -.00000579  00000+0 -18301-4 0  9996
2 54192  53.2165 213.9510 0001246  95.6835 264.4299 15.08836742166491
STARLINK-5263           
1 54193U 22141AN  25304.03365450  .00012368  00000+0  79393-3 0  9995
2 54193  53.2151 216.2101 0001698 108.1234 251.9943 15.08834826166424
STARLINK-5271           
1 54194U 22141AP  25304.48995786  .00000580  00000+0  54522-4 0  9997
2 54194  53.2164 214.0817 0001345  90.3916 269.7230 15.08840032166496
STARLINK-5258           
1 54195U 22141AQ  25304.03733825 -.00000204  00000+0  52454-5 0  9990
2 54195  53.2170 216.2315 0001438  87.2959 272.8197 15.08837985166429
STARLINK-5237           
1 54196U 22141AR  25304.48259274  .00000278  00000+0  35562-4 0  9991
2 54196  53.2182 214.0375 0001376  85.9733 274.1416 15.08840294166494
STARLINK-5246           
1 54198U 22141AT  25304.47888098  .00009171  00000+0  59284-3 0  9991
2 54198  53.2165 214.0151 0001241  78.1198 281.9933 15.08883417166493
STARLINK-5244           
1 54199U 22141AU  25304.02258818  .00001427  00000+0  10773-3 0  9990
2 54199  53.2170 216.1415 0001534  78.2313 281.8852 15.08849802166423
STARLINK-5250           
1 54200U 22141AV  25304.47154697 -.00000905  00000+0 -38772-4 0  9994
2 54200  53.2169 213.9697 0001217  85.0250 275.0881 15.08838427166490
STARLINK-5199           
1 54201U 22141AW  25304.49363284  .00000155  00000+0  27864-4 0  9996
2 54201  53.2178 214.1014 0001763  70.9057 289.2126 15.08843819166491
STARLINK-5205           
1 54202U 22141AX  25304.46416921 -.00000855  00000+0 -35618-4 0  9996
2 54202  53.2173 213.9249 0001312  83.0538 277.0603 15.08840858166498
STARLINK-5247           
1 54203U 22141AY  25304.07777728  .00001056  00000+0  84388-4 0  9999
2 54203  53.2175 215.7772 0001350  86.9460 273.1687 15.08846509166432
STARLINK-5241           
1 54204U 22141AZ  25304.45308391  .00005046  00000+0  33464-3 0  9999
2 54204  53.2184 213.8572 0001394  84.9428 275.1724 15.08866275166492
STARLINK-5249           
1 54205U 22141BA  25304.46048525 -.00000624  00000+0 -21131-4 0  9999
2 54205  53.2180 213.9012 0001364  86.2728 273.8420 15.08838932166491
STARLINK-5264           
1 54206U 22141BB  25304.67164896 -.00000058  00000+0  14481-4 0  9993
2 54206  53.2160 178.1450 0001514  84.9513 275.1652 15.08835424167016
STARLINK-5262           
1 54207U 22141BC  25304.45679970  .00001469  00000+0  11035-3 0  9991
2 54207  53.2177 213.8767 0001260  90.3291 269.7845 15.08840823166498
STARLINK-5255           
1 54208U 22141BD  25303.96418955  .00000433  00000+0  45316-4 0  9991
2 54208  53.2180 191.5281 0001504 100.8642 259.2519 15.08843978166760
STARLINK-5259           
1 54209U 22141BE  25304.46139869  .00000403  00000+0  43416-4 0  9998
2 54209  53.2176 203.9094 0001269 105.9314 254.1818 15.08850031166636
STARLINK-5464           
1 54758U 22175A   25304.17121152  .00002931  00000+0  20223-3 0  9996
2 54758  53.2177 260.7466 0001066  71.7287 288.3822 15.08828432160430
STARLINK-5215           
1 54759U 22175B   25304.57231573  .00001989  00000+0  14297-3 0  9996
2 54759  53.2196 258.9787 0001338  97.6946 262.4198 15.08857429160491
STARLINK-5220           
1 54760U 22175C   25304.17259499 -.00002064  00000+0 -11161-3 0  9995
2 54760  53.2200 265.7365 0002455  80.8086 279.3184 15.08833512160362
STARLINK-5202           
1 54761U 22175D   25304.17626618 -.00002526  00000+0 -14058-3 0  9998
2 54761  53.2189 265.7568 0001618  94.5030 265.6148 15.08859984160364
STARLINK-5214           
1 54762U 22175E   25304.62522870 -.00001522  00000+0 -77552-4 0  9998
2 54762  53.2174 263.5885 0001448  80.1143 280.0012 15.08829497160439
STARLINK-5191           
1 54763U 22175F   25304.16890513 -.00006466  00000+0 -38818-3 0  9993
2 54763  53.2172 265.7121 0001112  98.7558 261.3560 15.08872053160366
STARLINK-5458           
1 54764U 22175G   25304.21400132 -.00000357  00000+0 -43206-5 0  9996
2 54764  53.2178 265.2881 0001510  87.8369 272.2796 15.08834249160370
STARLINK-5471           
1 54766U 22175J   25304.61784317  .00001159  00000+0  90876-4 0  9995
2 54766  53.2179 263.5432 0001492  83.9827 276.1335 15.08845476160434
STARLINK-5472           
1 54767U 22175K   25304.61416259  .00002019  00000+0  14490-3 0  9996
2 54767  53.2186 263.5186 0001687  83.4900 276.6285 15.08836836160431
STARLINK-5444           
1 54768U 22175L   25304.58527527 -.00001351  00000+0 -66832-4 0  9992
2 54768  53.2180 249.0773 0001429  84.6374 275.4781 15.08830415160636
STARLINK-5448           
1 54770U 22175N   25304.56589338 -.00000759  00000+0 -29635-4 0  9992
2 54770  53.2179 248.9623 0001480  88.2196 271.8966 15.08832332160633
STARLINK-5451           
1 54771U 22175P   25304.59805420  .00001371  00000+0  10423-3 0  9992
2 54771  53.2198 258.4375 0001660  84.4140 275.7042 15.08842267160504
STARLINK-5452           
1 54772U 22175Q   25304.56220132  .00001300  00000+0  99754-4 0  9998
2 54772  53.2172 248.9405 0001348  86.7410 273.3736 15.08842478160635
STARLINK-5453           
1 54773U 22175R   25304.60678603  .00000641  00000+0  58322-4 0  9997
2 54773  53.2172 263.4737 0001385  94.3421 265.7730 15.08846025160433
STARLINK-5454           
1 54774U 22175S   25304.58423310  .00001614  00000+0  11949-3 0  9992
2 54774  53.2170 248.3759 0001878  80.1843 279.9361 15.08841939160645
STARLINK-5465           
1 54775U 22175T   25304.60310580  .00001402  00000+0  10615-3 0  9994
2 54775  53.2187 263.4500 0001545  87.1009 273.0160 15.08842623160438
STARLINK-5470           
1 54776U 22175U   25304.58100015  .00002950  00000+0  20337-3 0  9993
2 54776  53.2166 263.3178 0001438 100.6271 259.4883 15.08836479160431
STARLINK-5468           
1 54777U 22175V   25304.13574590  .00001058  00000+0  84557-4 0  9991
2 54777  53.2181 265.5096 0001511  95.4122 264.7043 15.08835825160363
STARLINK-5450           
1 54778U 22175W   25304.15739784  .00000666  00000+0  59942-4 0  9996
2 54778  53.2170 250.6797 0001362  91.9867 268.1281 15.08834588160576
STARLINK-5447           
1 54779U 22175X   25304.55852422 -.00000797  00000+0 -31978-4 0  9992
2 54779  53.2181 248.9182 0001518  90.2882 269.8284 15.08835605160638
STARLINK-5449           
1 54780U 22175Y   25304.54008719  .00002457  00000+0  17239-3 0  9991
2 54780  53.2184 248.7999 0001563  90.7281 269.3891 15.08847652160639
STARLINK-5443           
1 54781U 22175Z   25304.55114194  .00001394  00000+0  10566-3 0  9993
2 54781  53.2166 248.8639 0001588  79.6795 280.4376 15.08845918160630
STARLINK-5439           
1 54783U 22175AB  25304.54746042  .00001160  00000+0  90954-4 0  9998
2 54783  53.2184 248.8480 0001488  90.4064 269.7099 15.08844500160633
STARLINK-5442           
1 54784U 22175AC  25304.59575044  .00005014  00000+0  33302-3 0  9991
2 54784  53.2168 263.4046 0001248  94.3545 265.7590 15.08826158160437
STARLINK-5440           
1 54785U 22175AD  25304.46279997  .00004627  00000+0  30843-3 0  9992
2 54785  53.2163 209.1118 0001333  91.6160 268.4985 15.08860186161188
STARLINK-5441           
1 54787U 22175AF  25304.59205457  .00000789  00000+0  67686-4 0  9999
2 54787  53.2180 263.3834 0001487 103.1102 257.0056 15.08838545160435
STARLINK-5399           
1 54788U 22175AG  25304.07272864 -.00001347  00000+0 -66501-4 0  9997
2 54788  53.2179 250.8624 0001603  86.1964 273.9211 15.08851004160567
